      2.10          N: GNSS NAV DATA                        RINEX VERSION / TYPE
fic2rin                                 04/06/2018 00:14:25 PGM / RUN BY / DATE
                                                            END OF HEADER
12 18  4  5 18  0  0.0 3.413022495806e-04-2.160049916711e-12 0.000000000000e+00
    6.000000000000e+01 7.718750000000e+00 4.119814463952e-09 2.850550773453e+00
    2.235174179077e-07 7.159375469200e-03 3.544613718987e-06 5.153618013382e+03
    4.104000000000e+05-9.313225746155e-08 2.498969378688e+00-1.415610313416e-07
    9.870002399274e-01 3.203750000000e+02 9.497543456293e-01-7.987475567561e-09
   -1.278624688422e-10 1.000000000000e+00 1.995000000000e+03 0.000000000000e+00
    2.400000000000e+00 0.000000000000e+00-1.257285475731e-08 6.000000000000e+01
    4.032060000000e+05 4.000000000000e+00
31 18  4  5 18  0  0.0 1.305406913161e-04-2.614797267597e-12 0.000000000000e+00
    5.900000000000e+01 7.709375000000e+01 4.482686721895e-09-3.034877488841e+00
    4.064291715622e-06 8.785777725279e-03 7.778406143188e-06 5.153640846252e+03
    4.104000000000e+05-1.359730958939e-07 1.419458460908e+00 3.166496753693e-08
    9.635551593000e-01 2.328125000000e+02-1.362287996877e-01-7.888900032923e-09
    9.571827276455e-11 1.000000000000e+00 1.995000000000e+03 0.000000000000e+00
    2.400000000000e+00 0.000000000000e+00-1.350417733192e-08 5.900000000000e+01
    4.032060000000e+05 4.000000000000e+00
30 18  4  5 18  0  0.0 8.777901530266e-05-3.865352482535e-12 0.000000000000e+00
    8.900000000000e+01 9.928125000000e+01 4.900204113170e-09-2.682563252578e+00
    5.135312676430e-06 3.192774951458e-03 7.808208465576e-06 5.153760759354e+03
    4.104000000000e+05-3.911554813385e-08 1.441518797410e+00-2.607703208923e-08
    9.445057203287e-01 2.248750000000e+02-3.125913258537e+00-8.217842306118e-09
    1.253623647028e-10 1.000000000000e+00 1.995000000000e+03 0.000000000000e+00
    2.400000000000e+00 0.000000000000e+00 3.725290298462e-09 8.900000000000e+01
    4.032060000000e+05 4.000000000000e+00
27 18  4  5 18  0  0.0 3.702058456838e-04 1.136868377216e-13 0.000000000000e+00
    7.300000000000e+01-6.825000000000e+01 4.099099315368e-09 6.689983332087e-02
   -3.645196557045e-06 5.785868619569e-03 7.070600986481e-06 5.153683288574e+03
    4.104000000000e+05 1.490116119385e-08-2.804060705664e+00 3.725290298462e-08
    9.773955214981e-01 2.475625000000e+02 3.835630193165e-01-7.999618930524e-09
   -2.392956819114e-10 1.000000000000e+00 1.995000000000e+03 0.000000000000e+00
    2.400000000000e+00 0.000000000000e+00 1.862645149231e-09 7.300000000000e+01
    4.032060000000e+05 4.000000000000e+00
20 18  4  5 18  0  0.0 5.050380714238e-04 9.094947017729e-13 0.000000000000e+00
    7.900000000000e+01-2.156250000000e+00 5.382367054335e-09-1.511326367667e+00
    1.229345798492e-07 4.286205046810e-03 6.454065442085e-06 5.154822963715e+03
    4.104000000000e+05-5.960464477539e-08-8.123115287443e-01 5.029141902924e-08
    9.280358711391e-01 2.386875000000e+02 1.915173467371e+00-8.478567452081e-09
    2.203663219990e-10 1.000000000000e+00 1.995000000000e+03 0.000000000000e+00
    2.400000000000e+00 0.000000000000e+00-8.381903171539e-09 7.900000000000e+01
    4.032060000000e+05 4.000000000000e+00
 5 18  4  5 17 59 44.0-1.051090657711e-05 7.958078640513e-13 0.000000000000e+00
    5.000000000000e+00-9.937500000000e+00 5.010565853037e-09 8.394244507463e-01
   -4.209578037262e-07 5.292483721860e-03 6.290152668953e-06 5.153669540405e+03
    4.103840000000e+05-6.891787052155e-08-7.256374434493e-01 5.215406417847e-08
    9.476960330580e-01 2.513437500000e+02 6.129353698470e-01-8.304631635527e-09
    7.000291590243e-11 1.000000000000e+00 1.995000000000e+03 0.000000000000e+00
    2.400000000000e+00 0.000000000000e+00-1.071020960808e-08 5.000000000000e+00
    4.036860000000e+05 4.000000000000e+00
 5 18  4  5 19 59 44.0-1.050531864166e-05 7.958078640513e-13 0.000000000000e+00
    6.000000000000e+00-6.687500000000e+00 5.064139513166e-09 1.889725381253e+00
   -3.613531589508e-07 5.292365560308e-03 6.247311830521e-06 5.153668382645e+03
    4.175840000000e+05-6.146728992462e-08-7.256971495249e-01-9.313225746155e-09
    9.476963797696e-01 2.542187500000e+02 6.128219293275e-01-8.301417215920e-09
    4.428755904031e-11 1.000000000000e+00 1.995000000000e+03 0.000000000000e+00
    2.400000000000e+00 0.000000000000e+00-1.071020960808e-08 6.000000000000e+00
    4.104060000000e+05 4.000000000000e+00
 1 18  4  5 20  0  0.0-3.874348476529e-05-2.501110429876e-12 0.000000000000e+00
    8.200000000000e+01-1.371875000000e+01 4.204103689222e-09-1.093340229095e+00
   -7.897615432739e-07 7.538982667029e-03 8.948147296906e-06 5.153670757294e+03
    4.176000000000e+05 2.328306436539e-07-1.747770569522e+00-1.862645149231e-09
    9.703982190152e-01 2.130312500000e+02 6.108699021434e-01-7.848541208959e-09
    1.657211886670e-10 1.000000000000e+00 1.995000000000e+03 0.000000000000e+00
    3.400000000000e+00 0.000000000000e+00 5.587935447693e-09 8.200000000000e+01
    4.104060000000e+05 4.000000000000e+00
 3 18  4  5 20  0  0.0 4.438124597073e-05 8.071765478235e-12 0.000000000000e+00
    5.200000000000e+01-3.031250000000e+00 4.638407494005e-09-1.986360491842e+00
   -8.009374141693e-08 1.265961211175e-03 6.450340151787e-06 5.153780715942e+03
    4.176000000000e+05-6.705522537231e-08-7.045897549343e-01-9.313225746155e-09
    9.608108961447e-01 2.561875000000e+02 4.661543899100e-01-8.053549748387e-09
    5.571660653459e-11 1.000000000000e+00 1.995000000000e+03 0.000000000000e+00
    2.400000000000e+00 0.000000000000e+00 2.328306436539e-09 5.200000000000e+01
    4.104060000000e+05 4.000000000000e+00
 2 18  4  5 20  0  0.0 1.533064059913e-04-1.114131009672e-11 0.000000000000e+00
    7.300000000000e+01-1.450000000000e+01 4.834487090078e-09-7.421836642772e-01
   -6.239861249924e-07 1.788486354053e-02 9.492039680481e-06 5.153711744308e+03
    4.176000000000e+05-1.378357410431e-07-1.807821526566e+00 2.793967723846e-07
    9.494697158990e-01 1.953750000000e+02-1.871376574712e+00-8.444994625066e-09
    2.853690296227e-10 1.000000000000e+00 1.995000000000e+03 0.000000000000e+00
    2.400000000000e+00 0.000000000000e+00-2.048909664154e-08 7.300000000000e+01
    4.104060000000e+05 4.000000000000e+00
 8 18  4  5 20  0  0.0-9.680911898613e-05-1.364242052659e-12 0.000000000000e+00
    4.000000000000e+00-6.543750000000e+01 4.293750280505e-09 1.356651374981e+00
   -3.313645720482e-06 3.436864237301e-03 6.752088665962e-06 5.153792261124e+03
    4.176000000000e+05 2.048909664154e-08-2.812157853365e+00-2.793967723846e-08
    9.692109059246e-01 2.476562500000e+02-4.700426710954e-01-8.013905239892e-09
   -2.464388365953e-10 1.000000000000e+00 1.995000000000e+03 0.000000000000e+00
    2.400000000000e+00 0.000000000000e+00 5.587935447693e-09 4.000000000000e+00
    4.104060000000e+05 4.000000000000e+00
 6 18  4  5 20  0  0.0 4.101190716028e-04-1.591615728103e-12 0.000000000000e+00
    6.000000000000e+00-1.368750000000e+01 4.186245802512e-09-8.931115444464e-01
   -7.096678018570e-07 1.216043368913e-03 9.562820196152e-06 5.153602039337e+03
    4.176000000000e+05-3.725290298462e-08-1.756107324187e+00 9.499490261078e-08
    9.701260986974e-01 2.015937500000e+02-1.155641524262e+00-7.841398054275e-09
    3.071556514086e-10 1.000000000000e+00 1.995000000000e+03 0.000000000000e+00
    2.400000000000e+00 0.000000000000e+00 4.656612873077e-09 6.000000000000e+00
    4.104060000000e+05 4.000000000000e+00
 4 18  4  5 20  0  0.0 5.049398168921e-05 2.955857780762e-12 0.000000000000e+00
    7.400000000000e+01 1.084375000000e+01 5.619519789841e-09 2.297619970054e+00
    4.265457391739e-07 9.800015832298e-03 4.015862941742e-06 5.153688385010e+03
    4.176000000000e+05-9.685754776001e-08 2.464485444465e+00-1.601874828339e-07
    9.794736873306e-01 3.120937500000e+02 9.092340134977e-01-8.013905239892e-09
   -2.214377952016e-11 1.000000000000e+00 1.995000000000e+03 0.000000000000e+00
    3.400000000000e+00 6.300000000000e+01-1.955777406693e-08 7.400000000000e+01
    4.104060000000e+05 4.000000000000e+00
22 18  4  5 20  0  0.0-3.478028811514e-04-1.307398633799e-11 0.000000000000e+00
    5.000000000000e+00-2.718750000000e+00 5.546659612065e-09 4.361840772976e-01
   -8.940696716309e-08 7.431464502588e-03 6.420537829399e-06 5.153544088364e+03
    4.176000000000e+05-1.322478055954e-07-7.622193514155e-01-8.568167686462e-08
    9.248070514801e-01 2.401875000000e+02-1.581986444657e+00-8.654646215040e-09
    1.071473202588e-11 1.000000000000e+00 1.995000000000e+03 0.000000000000e+00
    2.400000000000e+00 0.000000000000e+00-1.769512891769e-08 5.000000000000e+00
    4.104060000000e+05 4.000000000000e+00
17 18  4  5 20  0  0.0-1.095468178391e-04 3.296918293927e-12 0.000000000000e+00
    7.000000000000e+00-7.346875000000e+01 4.048740074847e-09 9.370249716969e-01
   -3.878027200699e-06 1.227644400205e-02 8.104369044304e-06 5.153789470673e+03
    4.176000000000e+05-2.160668373108e-07-2.750385700056e+00 1.676380634308e-08
    9.826266693164e-01 2.403437500000e+02-1.782419980261e+00-8.048549540109e-09
   -2.482246252663e-10 1.000000000000e+00 1.995000000000e+03 0.000000000000e+00
    2.400000000000e+00 0.000000000000e+00-1.117587089539e-08 7.000000000000e+00
    4.104060000000e+05 4.000000000000e+00
28 18  4  5 20  0  0.0 7.036062888801e-04 3.524291969370e-12 0.000000000000e+00
    1.000000000000e+01-4.031250000000e+00 4.123028883560e-09 1.958643911324e+00
   -5.122274160385e-07 1.955336635001e-02 3.144145011902e-06 5.153675878525e+03
    4.176000000000e+05 3.371387720108e-07 2.522085870360e+00-2.682209014893e-07
    9.863104155363e-01 3.285312500000e+02-1.522731644205e+00-7.812825435539e-09
   -1.100045821324e-10 1.000000000000e+00 1.995000000000e+03 0.000000000000e+00
    2.400000000000e+00 0.000000000000e+00-1.117587089539e-08 1.000000000000e+01
    4.104060000000e+05 4.000000000000e+00
